name,region,address_full,lat,lon,contentid,landscape_keywords,travel_style_keywords
갈거계곡,완주군,전북특별자치도,35.9085419668,127.4377085322,129681,강·호수;숲,야외활동;힐링·여유;사진 스팟
경천저수지,완주군,전북특별자치도,36.0381431707,127.2395171794,2784663,강·호수,힐링·여유;야외활동;사진 스팟
고산문화공원,완주군,전북특별자치도,35.974214201,127.231225168,3345112,,힐링·여유;문화·역사;사진 스팟
고산자연휴양림,완주군,전북특별자치도,35.9629766259,127.2331252962,127533,숲,힐링·여유;체험형;야외활동
고산향교,완주군,전북특별자치도,35.976113679,127.2137377876,1612565,,문화·역사
국립 운장산자연휴양림,완주군,전북특별자치도,35.8963458988,127.4244517017,127169,산;숲,힐링·여유;야외활동;체험형
기차산 해골바위,완주군,전북특별자치도,35.9701444451,127.3455178741,2814812,산,야외활동;사진 스팟
농업회사법인 주식회사 공동체공간 수작,완주군,전북특별자치도,35.9420628673,127.2631953933,2995169,,체험형;문화·역사
달달구리(주식회사달달구리),완주군,전북특별자치도,35.9386699052,127.1668457321,2995167,,먹거리 탐방;체험형
대둔산도립공원(전북),완주군,전북특별자치도,36.1172885601,127.3328123047,127673,산,야외활동;힐링·여유;사진 스팟
대아저수지(대아호),완주군,전북특별자치도,35.9730817321,127.2732436768,126319,강·호수,힐링·여유;야외활동;사진 스팟
동상운장산계곡,완주군,전북특별자치도,35.9783508013,127.2860868374,126684,강·호수;숲,힐링·여유;야외활동;사진 스팟
되재성당,완주군,전북특별자치도,36.0862178467,127.2168901431,2702537,,문화·역사
반곡서원(완주),완주군,전북특별자치도,36.0184249478,127.180806271,1956980,,문화·역사
백현서원,완주군,전북특별자치도,35.9858819836,127.2121765576,1956989,,문화·역사
봉강서원(완주),완주군,전북특별자치도,35.9099590868,127.1553558443,1956999,,문화·역사
봉서사(완주),완주군,전북특별자치도,35.9087325597,127.219139085,126338,산,문화·역사;힐링·여유
부귀 편백숲 삼림욕장,완주군,전북특별자치도,35.8416424403,127.3477433028,2615385,숲,힐링·여유;야외활동;체험형;사진 스팟
산속등대 복합문화공간,완주군,전북특별자치도,35.8693487271,127.2520066415,2633954,,문화·역사;체험형
소양고택,완주군,전북특별자치도,35.9037252144,127.2431037503,2615336,,문화·역사
소양벚꽃길,완주군,전북특별자치도,35.883752495,127.2435459041,3076337,,힐링·여유;사진 스팟;야외활동
신흥계곡,완주군,전북특별자치도,36.0294061902,127.2915961018,129556,강·호수;숲,힐링·여유;야외활동;사진 스팟
안심사(완주),완주군,전북특별자치도,36.1083946058,127.3030457533,337411,산,문화·역사;힐링·여유
연석산,완주군,전북특별자치도,35.9075429895,127.3313180205,716644,산,힐링·여유;야외활동
오복마을(경천애인마을),완주군,전북특별자치도,36.0181706975,127.2537608842,1939606,,체험형;힐링·여유
오성 한글다리,완주군,전북특별자치도,35.9037196596,127.2431120827,2778924,,사진 스팟;문화·역사
옥계천,완주군,전북특별자치도,36.0968930253,127.2964744244,1613900,강·호수,힐링·여유;야외활동
완주 인덕마을[농촌체험휴양마을],완주군,전북특별자치도,35.8800638561,127.233794091,2580713,,체험형;힐링·여유
완주 화산꽃동산,완주군,전북특별자치도,36.0541435705,127.2079167955,3361574,,힐링·여유;사진 스팟
운일암 반일암 계곡,완주군,전북특별자치도,35.9798608986,127.396343646,127893,강·호수;숲,힐링·여유;야외활동;사진 스팟
운장산,완주군,전북특별자치도,35.9213331989,127.337717086,126243,산;숲,야외활동;힐링·여유;사진 스팟
운장산(진안),완주군,전북특별자치도,35.9110430472,127.3573156145,126246,산;숲,야외활동;힐링·여유;사진 스팟
운주계곡,완주군,전북특별자치도,36.080394617,127.2799735586,2615339,강·호수;숲,힐링·여유;야외활동
원등산,완주군,전북특별자치도,35.8872446394,127.2936163566,1614020,산,야외활동;힐링·여유
위봉사(완주),완주군,전북특별자치도,35.9104469175,127.2571773196,126356,산,문화·역사;힐링·여유
위봉산성,완주군,전북특별자치도,35.9051224481,127.2528722878,127910,산,문화·역사;야외활동
위봉폭포,완주군,전북특별자치도,35.9097387398,127.2614908428,126263,강·호수;숲,힐링·여유;사진 스팟;야외활동
장선천,완주군,전북특별자치도,36.1051248144,127.2620633863,1614156,강·호수,힐링·여유;야외활동
주천생태공원,완주군,전북특별자치도,35.9649549276,127.4340795746,3066726,강·호수;숲,힐링·여유;체험형;야외활동
주천서원,완주군,전북특별자치도,35.9747759661,127.4303740865,129667,,문화·역사
창포마을,완주군,전북특별자치도,35.9874326346,127.2595222969,1920063,,체험형;힐링·여유
천곡서원,완주군,전북특별자치도,36.0038940791,127.2270414226,1957088,,문화·역사
천등산,완주군,전북특별자치도,36.0856445289,127.3090152731,716704,산,힐링·여유;야외활동
천황사(진안),완주군,전북특별자치도,35.9054866603,127.4321091111,129666,산,문화·역사;힐링·여유
name,region,address_full,lat,lon,contentid,landscape_keywords,travel_style_keywords
화암사(완주),완주군,전북특별자치도,36.0662963531,127.2872399527,126332,산;숲,문화·역사;힐링·여유
공정여행풍덩,완주군,전북특별자치도,35.8562304611,127.3928416861,2833788,,체험형;레저·액티비티
대둔산케이블카,완주군,전북특별자치도,36.1166913472,127.3294987277,2707908,산,레저·액티비티;야외활동;사진 스팟
대아수목원,완주군,전북특별자치도,35.9736738835,127.3047575211,125415,숲,힐링·여유;체험형;야외활동;사진 스팟
복합문화지구 누에,완주군,전북특별자치도,35.9064290082,127.1596833299,2990226,,체험형;문화·역사
불명산,완주군,전북특별자치도,36.0615664441,127.293383975,716576,산,힐링·여유;야외활동
소양 마수벽화마을,완주군,전북특별자치도,35.8532308238,127.2352502231,2615335,,체험형;문화·역사;사진 스팟
송광사(완주),완주군,전북특별자치도,35.8842746273,127.2417793808,126333,산;숲,문화·역사;힐링·여유
수만리마애석불,완주군,전북특별자치도,35.9411243949,127.280910507,1613853,산,문화·역사
싱그랭이 에코정원,완주군,전북특별자치도,36.0577582496,127.2765383569,2713282,숲,힐링·여유;체험형;사진 스팟
오성제 저수지,완주군,전북특별자치도,35.9039168012,127.2397790409,2637673,강·호수,힐링·여유;야외활동;체험형
오성한옥마을,완주군,전북특별자치도,35.9031141763,127.2433009708,2686588,,문화·역사;체험형
와룡암,완주군,전북특별자치도,35.9755730816,127.4294574803,127008,산,문화·역사;힐링·여유
완주 대승한지마을,완주군,전북특별자치도,35.8299176763,127.2849686366,2469085,,체험형;문화·역사
운암산(완주),완주군,전북특별자치도,35.9863414117,127.2777651449,716603,산,힐링·여유;야외활동
원등사(완주),완주군,전북특별자치도,35.8815591537,127.292372172,346912,산,문화·역사;힐링·여유
은천계곡,완주군,전북특별자치도,35.9896778005,127.3152839361,250457,강·호수;숲,힐링·여유;야외활동;체험형
종남산,완주군,전북특별자치도,35.8953897026,127.2230724197,716659,산,힐링·여유;야외활
추수경장군묘역,완주군,전북특별자치도,35.9596811473,127.1523325833,1614174,,문화·역사
한국과학기술연구원(KIST) 전북분원,완주군,전북특별자치도,35.9626197725,127.1563877001,2554409,,체험형;교육·연구
화산서원(완주),완주군,전북특별자치도,35.8389030355,127.3004336917,1957315,,문화·역사
화암사 우화루,완주군,전북특별자치도,36.0662991279,127.2871177417,1614305,산;숲,문화·역사;힐링·여유
그림책미술관,완주군,전북특별자치도 완주군 삼례읍 삼례역로 48,,,2778062,,문화·역사;체험형
대한민국 술테마박물관,완주군,전북특별자치도 완주군 구이면 덕천전원길 232-58,,,2615343,,체험형;먹거리 탐방
오거리 소극장,완주군,전북특별자치도 완주군 소양면 송광수만로 95,,,3084955,,문화·역사;공연·축제
오스갤러리,완주군,전북특별자치도 완주군 소양면 오도길 24,,,2606148,,문화·역사;사진 스팟
완주문화원,완주군,전북특별자치도 완주군 고산면 읍내7길 43,,,129980,,문화·역사
완주향토예술문화회관,완주군,전북특별자치도 완주군 삼례읍 삼봉로 215,,,1784117,,문화·역사;공연·축제
유휴열미술관,완주군,전북특별자치도 완주군 구이면 신뱅이길 55,,,2778070,,문화·역사;사진 스팟
전북도립미술관,완주군,전북특별자치도 완주군 모악산길 111-6 전북도립미술관,,,2037231,,문화·역사;체험형;사진 스팟
플리커책방,완주군,전북특별자치도 완주군 소양면 송광수만로 500,,,2790518,,체험형;문화·역사
시나브로 치유길 힐링 걷기 챌린지(전북특별자치도 완주편),완주군,전북특별자치도 완주군 구이면 덕천전원길 232-58,,,3479565,산;숲,힐링·여유;야외활동
완주 와일드&로컬푸드축제,완주군,전북특별자치도 완주군 고산면 고산휴양림로 89,,,1336591,,축제·이벤트;먹거리 탐방;체험형
2025년 완주군 근대역사 문화여행,완주군,전북특별자치도 완주군 삼례읍 삼례역로 81-1,,,3501034,,문화·역사;체험형
경천애인 징검다리길,완주군,전북특별자치도 완주군 경천면 경천리 680-3,,,2712742,강·호수,야외활동;사진 스팟;힐링·여유
고산무궁화오토캠핑장,완주군,전북특별자치도 완주군 고산면 고산휴양림로 89,,,2738774,숲,야외활동;체험형;힐링·여유
구이저수지 둘레길,완주군,전북특별자치도 완주군 구이면 구이로 1488-31,,,2806616,강·호수,야외활동;힐링·여유;사진 스팟
다람쥐 쉼터,완주군,전북특별자치도 완주군 운주면 금고당로 1016,,,2749829,숲,힐링·여유;체험형
대둔산 그린시티 오토캠핑장,완주군,전북특별자치도 완주군 운주면 산북신복길 50,,,2747484,산,야외활동;체험형;힐링·여유
대둔산 캠핑펜션 오토캠핑장,완주군,전북특별자치도 완주군 대둔산로 2100-24,,,2908922,산,야외활동;체험형;힐링·여유
대둔산글램핑캠핑장,완주군,전북특별자치도 완주군 운주면 원장선로 42-209,,,2747491,산,야외활동;체험형;힐링·여유
동상힐링캠핑장,완주군,전북특별자치도 완주군 동상면 동상주천로 160-25,,,2757666,숲;산,힐링·여유;야외활동;체험형
래미안밸리,완주군,전북특별자치도 완주군 운주면 금고당로 617,,,2727223,숲,힐링·여유
로뎀하우스,완주군,전북특별자치도 완주군 운주면 금고당로 1070-14,,,2745707,숲,힐링·여유;체험형
민들레동산 캠핑장,완주군,전북특별자치도 완주군 화산면 하용마안길 35-152,,,2747055,숲,야외활동;힐링·여유;체험형
부엉캠핑클럽,완주군,전북특별자치도 완주군 산북신복길 125-72,,,2908907,산;숲,야외활동;체험형;힐링·여유
비채야영장,완주군,전북특별자치도 완주군 동상면 사봉리,,,2761941,숲,야외활동;힐링·여유;체험형
선야봉캠핑장,완주군,전북특별자치도 완주군 운주면 금고당로 727,,,2728204,산,야외활동;힐링·여유;체험형
숲내음펜션,완주군,전북특별자치도 완주군 죽림편백길 143-2,,,2908898,숲,힐링·여유
에어 피닉스,완주군,전북특별자치도 완주군 구이면 덕평로 209,,,3011075,,레저·액티비티;체험형
에코캠프오토캠핑장,완주군,전북특별자치도 완주군 동상면 대아수목로 144-1,,,2730008,숲;산,야외활동;체험형;힐링·여유
예원캠핑장,완주군,전북특별자치도 완주군 동상면 송광수만로 1079-126,,,2744428,숲,야외활동;체험형;힐링·여유
완주 고산 놀토피아,완주군,전북특별자치도 완주군 고산면 대아저수로 416,,,2606205,강·호수,체험형;힐링·여유
완주 에코 어드벤처,완주군,전북특별자치도 완주군 고산면 고산휴양림로 246,,,1961485,숲;산,레저·액티비티;체험형
완주소양캠핑장,완주군,전북특별자치도 완주군 소양면 해월신왕길 144-19,,,2731144,숲,야외활동;힐링·여유;체험형
완주힐조타운캠핑장,완주군,전북특별자치도 완주군 비봉면 천호로 235-38,,,2743762,숲,야외활동;체험형;힐링·여유
주노글램핑 완주점,완주군,전북특별자치도 완주군 비봉면 천호로 235-38,,,3076348,숲,체험형;힐링·여유;야외활동
청정테마힐링센터,완주군,전북특별자치도 완주군 구이면 장미로 31,,,131732,숲,힐링·여유;체험형
카라반파크아마존,완주군,전북특별자치도 완주군 신전길 75-96,,,2908885,숲,체험형;힐링·여유;야외활동
호연재,완주군,전북특별자치도 완주군 송광수만로 373-16,,,2737381,숲,힐링·여유
고산미소시장,완주군,전북특별자치도 완주군 고산면 남봉로 134,,,132301,,먹거리 탐방;체험형
"봉동생강골시장 (5, 10일)",완주군,전북특별자치도 완주군 봉동읍 봉동동서로 134-5,,,132288,,먹거리 탐방;체험형
삼례시장,완주군,전북특별자치도 완주군 삼례읍 삼봉로 6,,,2738697,,먹거리 탐방;체험형
"삼례정기시장 (3, 8일)",완주군,전북특별자치도 완주군 삼례읍 삼례로 370-2,,,132300,,먹거리 탐방;체험형
완주 로컬푸드직매장,완주군,전북특별자치도 완주군 용진읍 완주로 187,,,2687343,,먹거리 탐방;체험형
