name,region,address_full,lat,lon,contentid,landscape_keywords,travel_style_keywords
강천사 모과나무,순창군,전북특별자치도,35.3987570781,127.0556862716,2357460,산,문화·역사;힐링·여유
강천사(순창),순창군,전북특별자치도,35.3984154482,127.0555668463,126347,산,문화·역사;힐링·여유;사진 스팟
강천사계곡,순창군,전북특별자치도,35.3984987787,127.0559612538,1625118,산;강·호수,야외활동;힐링·여유;사진 스팟
강천산휴양농원,순창군,전북특별자치도,35.4277205858,127.0627071317,127651,산;숲,힐링·여유;체험형
구담마을,순창군,전북특별자치도,35.4924487956,127.1911829756,129656,강·호수,체험형;힐링·여유
구송정 유원지,순창군,전북특별자치도,35.4306954797,127.2377304453,2357444,강·호수,야외활동;체험형;힐링·여유
구장군폭포,순창군,전북특별자치도,35.4083228536,127.0668822579,1610474,산;강·호수,야외활동;사진 스팟
국립임실호국원,순창군,전북특별자치도,35.5507893785,127.1895732782,1586632,,문화·역사
달빛곳간,순창군,전북특별자치도,35.4927858852,127.2500360869,3354268,,먹거리 탐방;체험형
만일사(순창),순창군,전북특별자치도,35.4858371666,127.1175924451,126336,산,문화·역사;힐링·여유
매월당,순창군,전북특별자치도,35.3489053382,127.2729127709,2660381,,문화·역사
병풍폭포,순창군,전북특별자치도,35.4081700885,127.0666322839,988215,산;강·호수,야외활동;사진 스팟;힐링·여유
사곡리남근석,순창군,전북특별자치도,35.5175929562,127.1788723069,129657,산,문화·역사;사진 스팟
산동리 남근석,순창군,전북특별자치도,35.3838871112,127.0891225791,2357431,산,문화·역사;사진 스팟
석산리 마애여래좌상,순창군,전북특별자치도,35.444365408,127.1944117056,2357456,,문화·역사
섬진강,순창군,전북특별자치도,35.3376773859,127.1890371411,1610774,강·호수,야외활동;힐링·여유;사진 스팟
섬진강(천담,구담),순창군,전북특별자치도,35.4848607562,127.1905971118,127924,강·호수,야외활동;힐링·여유
섬진강댐,순창군,전북특별자치도,35.5423917655,127.1116804032,1185879,강·호수,체험형;힐링·여유
순창 거북장수마을 [농촌전통테마],순창군,전북특별자치도,35.4438129878,127.2115574238,800971,산,체험형;문화·역사
순창 쉴랜드,순창군,전북특별자치도,35.4315879963,127.1316037073,2713440,산;숲,힐링·여유;체험형
순창 전통고추장 민속마을,순창군,전북특별자치도,35.3669032664,127.1091962359,1614506,,체험형;먹거리 탐방;문화·역사
순창 향가터널,순창군,전북특별자치도,35.3402742767,127.1868344916,2616353,산,사진 스팟;야외활동
순창고추장익는마을,순창군,전북특별자치도,35.4828458077,127.1157899039,128422,,체험형;먹거리 탐방;문화·역사
순창군 채계산 출렁다리,순창군,전북특별자치도,35.4125281109,127.2388724788,2654773,산,레저·액티비티;사진 스팟;야외활동
순창앵무새팜,순창군,전북특별자치도,35.3236086647,127.1384808605,3358353,,체험형;레저·액티비티
순창장류체험관,순창군,전북특별자치도,35.365886695,127.1080408086,1437668,,체험형;먹거리 탐방
순화리 삼층석탑,순창군,전북특별자치도,35.3782746213,127.1336687788,1610925,,문화·역사
애플트리 힐링팜,순창군,전북특별자치도,35.5571870926,127.0990394767,2996825,,체험형;힐링·여유
양떼목장임실치즈마을,순창군,전북특별자치도,35.5330980441,127.0924406823,3082730,산,체험형;먹거리 탐방;힐링·여유
요강바위,순창군,전북특별자치도,35.4693375031,127.1899336818,2737277,산,사진 스팟;야외활동
용궐산,순창군,전북특별자치도,35.4632633953,127.2017661238,3074779,산,야외활동;힐링·여유
용추계곡,순창군,전북특별자치도,35.5814607831,127.1827592002,1586218,산;강·호수,야외활동;힐링·여유;사진 스팟
임병찬창의유적지,순창군,전북특별자치도,35.531884215,127.0878938944,252599,,문화·역사
임실레드팜,순창군,전북특별자치도,35.5768507735,127.2162063532,2891340,,체험형;힐링·여유
장군목유원지,순창군,전북특별자치도,35.4693319501,127.1900475607,1611910,강·호수,야외활동;체험형;힐링·여유;사진 스팟
name,region,address_full,lat,lon,contentid,landscape_keywords,travel_style_keywords
진메마을,순창군,전북특별자치도,35.4850880281,127.1627412404,2789698,산,체험형;힐링·여유
창덕리 남근석,순창군,전북특별자치도,35.3704275951,127.0933114402,2357424,산,문화·역사;사진 스팟
학정리석불,순창군,전북특별자치도,35.5058201867,127.2307763447,1590673,,문화·역사
학정서원,순창군,전북특별자치도,35.5760395007,127.2015437858,1957156,,문화·역사
향가유원지,순창군,전북특별자치도,35.3390994961,127.1918785205,2357437,강·호수,야외활동;힐링·여유
환봉서원,순창군,전북특별자치도,35.33927607,127.2844481101,1957326,,문화·역사
강천산 군립공원,순창군,전북특별자치도,35.4088283627,127.0675127446,126249,산;숲,야외활동;힐링·여유;사진 스팟
광제정,순창군,전북특별자치도,35.4935718109,127.2444643384,127006,산,문화·역사;힐링·여유
구암정,순창군,전북특별자치도,35.4357026839,127.2051359791,1610651,강·호수,힐링·여유;사진 스팟
국립 회문산자연휴양림,순창군,전북특별자치도,35.4989801303,127.1180948404,127512,산;숲,힐링·여유;야외활동
귀래정(순창),순창군,전북특별자치도,35.3644401615,127.1387159081,1610669,산,문화·역사;힐링·여유
노동환가옥,순창군,전북특별자치도,35.4843676764,127.266354304,1590793,,문화·역사
대모암(순창),순창군,전북특별자치도,35.3728695088,127.1238503415,299989,산,문화·역사;힐링·여유
만취정,순창군,전북특별자치도,35.4798795182,127.27920606,127005,산,문화·역사;힐링·여유
문덕봉,순창군,전북특별자치도,35.3759241772,127.2538720935,716358,산,야외활동;힐링·여유;사진 스팟
발효소스토굴,순창군,전북특별자치도,35.3671558953,127.1021801835,2663273,,체험형;먹거리 탐방
섬진강댐 물 문화관,순창군,전북특별자치도,35.6063733697,127.1100900042,2469189,강·호수,체험형;힐링·여유
순창 남계리 석장승,순창군,전북특별자치도,35.376980574,127.1482786299,250312,,문화·역사
순창 대모산성,순창군,전북특별자치도,35.372788954,127.1233587202,1612200,산,문화·역사
순창 충신리 석장승,순창군,전북특별자치도,35.3765472779,127.1475842581,250311,,문화·역사
순창건강장수체험과학관,순창군,전북특별자치도,35.4299159695,127.1319703843,2663368,,체험형
순창발효테마파크,순창군,전북특별자치도,35.368905875,127.1125625531,3026667,,체험형;먹거리 탐방
순창향교,순창군,전북특별자치도,35.3736668208,127.134343837,1610884,,문화·역사
순평사 금동여래좌상,순창군,전북특별자치도,35.381099268,127.1317383218,1610907,,문화·역사
실상암,순창군,전북특별자치도,35.3808965342,127.132954886,2357452,산,문화·역사;힐링·여유
어은정,순창군,전북특별자치도,35.4237764703,127.2175490762,1611300,강·호수,힐링·여유;야외활동
옥정호 작약 꽃밭,순창군,전북특별자치도,35.5796847431,127.1107906314,3082705,강·호수,사진 스팟;힐링·여유
채계산,순창군,전북특별자치도,35.4012207934,127.2235741233,1612090,산,야외활동;힐링·여유;사진 스팟
풍계서원,순창군,전북특별자치도,35.4188501077,127.2672809136,1957149,,문화·역사
회문산,순창군,전북특별자치도,35.4989801303,127.1180948404,716987,산,야외활동;힐링·여유;사진 스팟
순창문화원,순창군,전북특별자치도 순창군 순창읍 장류로 407-11,,,129979,,문화·역사
순창장류박물관,순창군,전북특별자치도 순창군 순창읍 장류로 43,,,638976,,체험형;문화·역사;먹거리 탐방
예솔분재원,순창군,전북특별자치도 순창군 구림면 강천로 952,,,1611872,산,체험형;힐링·여유
전북특별자치도 산림박물관,순창군,전북특별자치도 순창군 복흥면 추령로 1777,,,130537,숲,체험형;힐링·여유;문화·역사
추령장승촌,순창군,전북특별자치도 순창군 복흥면 추령로 1792-12,,,1612096,산,문화·역사;체험형
강천산캠핑,순창군,전북특별자치도 순창군 팔덕면 강천로 664-26,,,2740134,산;숲,야외활동;힐링·여유
거북이야영캠핑장,순창군,전북특별자치도 순창군 장군목길 352,,,2908936,강·호수,야외활동;힐링·여유
녹두장군 전봉준관,순창군,전북특별자치도 순창군 쌍치면 피노길 65-29,,,1614574,,문화·역사
녹두장군 전봉준관캠핑장,순창군,전북특별자치도 순창군 쌍치면 피노길 65-29,,,2749727,산,야외활동;체험형
단아한펜션,순창군,전북특별자치도 순창군 산동신흥길 6,,,2908949,산,힐링·여유
섬진강 마실휴양숙박시설단지,순창군,전북특별자치도 순창군 적성면 강경길 76-165,,,2749522,강·호수,힐링·여유;체험형
섬진강 예향천리마실길,순창군,전북특별자치도 순창군 적성면 강경길 76-165,,,2712761,강·호수,야외활동;힐링·여유;사진 스팟
섬진강향가오토캠핑장,순창군,전북특별자치도 순창군 풍산면 향가로 575,,,2351092,강·호수,야외활동;힐링·여유
순창향관광농원오토캠핑장,순창군,전북특별자치도 순창군 구림면 구림로 3-2,,,2743256,산,체험형;힐링·여유
용궐산하늘길,순창군,전북특별자치도 순창군 동계면 장군목길 562,,,2774288,산,야외활동;힐링·여유;사진 스팟
웅이네캠핑장,순창군,전북특별자치도 순창군 복흥면 용지길 7-50,,,2730802,산,야외활동;힐링·여유
청산별곡,순창군,전북특별자치도 순창군 동계면 수장2길 38-4,,,2745697,산,힐링·여유
회문랜드캠핑장,순창군,전북특별자치도 순창군 구림면 안정리,,,2747051,산,야외활동;힐링·여유
회문산 캠핑장,순창군,전북특별자치도 순창군 안심길 214 회문산휴양림,,,2755727,산;숲,야외활동;힐링·여유
복흥장 (3, 8일),순창군,전북특별자치도 순창군 복흥면 정산2길 7,,,132416,,문화·역사;체험형
순창시장,순창군,전북특별자치도 순창군 순창읍 남계로 58,,,132325,,먹거리 탐방;체험형
