name,region,address_full,lat,lon,contentid,image_url,tags,keywords,source_file,classification_method
가왕 송흥록·국창 박초월 생가,남원시,전북특별자치도,35.4575758647,127.5626899062,2788127,,"관광,문화","자연,전통,관광,문화",tour_api_attractions.csv,좌표
가장마을,남원시,전북특별자치도,35.4101221138,127.5179339854,2793231,,"관광,문화","마을,자연,전통,관광,문화",tour_api_attractions.csv,좌표
광한루,남원시,전북특별자치도,35.4021539472,127.3799713796,1607131,,"관광,문화","자연,전통,관광,문화",tour_api_attractions.csv,좌표
광한루원,남원시,전북특별자치도,35.4029038525,127.3793853018,126397,,"관광,문화","자연,전통,관광,문화",tour_api_attractions.csv,좌표
구 서도역,남원시,전북특별자치도,35.4898570568,127.3306262502,2660392,,"관광,문화","교통,여행,출발점,연결,자연,전통,관광,문화",tour_api_attractions.csv,좌표
구룡계곡,남원시,전북특별자치도,35.3922568235,127.4810627064,126264,,"관광,자연","계곡,자연,여름,피서,청량,전통,관광",tour_api_attractions.csv,좌표
군화마을,남원시,전북특별자치도,35.4577148782,127.5707003057,2793221,,"관광,문화","마을,자연,전통,관광,문화",tour_api_attractions.csv,좌표
귀정사(남원),남원시,전북특별자치도,35.5124677848,127.4556979287,298100,,"관광,문화","자연,전통,관광,문화",tour_api_attractions.csv,좌표
남원 만인의총,남원시,전북특별자치도,35.4183520713,127.3774350742,126381,,"관광,문화","자연,전통,관광,문화",tour_api_attractions.csv,좌표
남원 신계리 마애여래좌상,남원시,전북특별자치도,35.4347322452,127.3020496499,250459,,"관광,문화","자연,전통,관광,문화",tour_api_attractions.csv,좌표
남원 실상사 석장승,남원시,전북특별자치도,35.4168289559,127.6347929402,1626285,,"관광,문화","자연,전통,관광,문화",tour_api_attractions.csv,좌표
남원 아담원,남원시,전북특별자치도,35.4406123944,127.4768423766,2638439,,"관광,자연","자연,전통,관광",tour_api_attractions.csv,좌표
남원 추어마을,남원시,전북특별자치도,35.5317428147,127.423311402,129314,,"관광,문화","마을,자연,전통,관광,문화",tour_api_attractions.csv,좌표
남원 추어탕 거리,남원시,전북특별자치도,35.4005540714,127.3766717134,2613631,,"관광,문화","거리,자연,전통,관광,문화",tour_api_attractions.csv,좌표
남원 황산대첩비지,남원시,전북특별자치도,35.4579285861,127.5617372032,126382,,"관광,문화","등산,하이킹,자연,운동,경치,전통,관광,문화",tour_api_attractions.csv,좌표
남원관광단지,남원시,전북특별자치도,35.4022068955,127.3901038165,126431,,"관광,문화","자연,전통,관광,문화",tour_api_attractions.csv,좌표
남원랜드,남원시,전북특별자치도,35.4027429759,127.3918814232,3017615,,"관광,문화","자연,전통,관광,문화",tour_api_attractions.csv,좌표
남원몽심재,남원시,전북특별자치도,35.3379944423,127.3747457211,250460,,"관광,문화","자연,전통,관광,문화",tour_api_attractions.csv,좌표
남원시 옻칠공예관,남원시,전북특별자치도,35.3954460093,127.3589956291,2714794,,"관광,문화","자연,전통,관광,문화",tour_api_attractions.csv,좌표
남원읍성,남원시,전북특별자치도,35.4140497794,127.3773574139,1607188,,"관광,문화","역사,문화재,전통,방어,자연,관광,문화",tour_api_attractions.csv,좌표
남원자연휴양림,남원시,전북특별자치도,35.4570177788,127.4140697206,126939,,"관광,자연","자연,전통,관광",tour_api_attractions.csv,좌표
남원항공우주천문대,남원시,전북특별자치도,35.3991821898,127.3874041336,1607213,,"관광,자연","자연,전통,관광",tour_api_attractions.csv,좌표
남원향교,남원시,전북특별자치도,35.4220656371,127.3830011522,126410,,"관광,문화","서원,교육,유교,역사,전통,다리,건축,경관,도시,교통,자연,관광,문화",tour_api_attractions.csv,좌표
내송마을,남원시,전북특별자치도,35.3978723742,127.4534011141,2793229,,"관광,문화","마을,자연,전통,관광,문화",tour_api_attractions.csv,좌표
노치마을,남원시,전북특별자치도,35.4025060269,127.5017967198,2793212,,"관광,문화","마을,자연,전통,관광,문화",tour_api_attractions.csv,좌표
달궁계곡,남원시,전북특별자치도,35.3709025582,127.5759326655,126268,,"관광,자연","계곡,자연,여름,피서,청량,궁궐,역사,조선,문화재,전통,관광",tour_api_attractions.csv,좌표
대곡리암각화,남원시,전북특별자치도,35.4091408379,127.3102440309,231925,,"관광,문화","자연,전통,관광,문화",tour_api_attractions.csv,좌표
대복사(남원),남원시,전북특별자치도,35.4166215587,127.3686220088,299994,,"관광,문화","자연,전통,관광,문화",tour_api_attractions.csv,좌표
덕음암(남원),남원시,전북특별자치도,35.4057231825,127.3911675204,300089,,"관광,문화","자연,전통,관광,문화",tour_api_attractions.csv,좌표
미륵암(남원),남원시,전북특별자치도,35.3893885888,127.3721640668,309297,,"관광,문화","자연,전통,관광,문화",tour_api_attractions.csv,좌표
바래봉,남원시,전북특별자치도,35.4215412863,127.5762174314,126675,,"관광,자연","등산,하이킹,자연,운동,경치,전통,관광",tour_api_attractions.csv,좌표
뱀사골 와운마을,남원시,전북특별자치도,35.3626676626,127.5922814381,2605243,,"관광,문화","마을,자연,전통,관광,문화",tour_api_attractions.csv,좌표
뱀사골계곡,남원시,전북특별자치도,35.3355485373,127.5942653025,126269,,"관광,자연","계곡,자연,여름,피서,청량,전통,관광",tour_api_attractions.csv,좌표
상황마을,남원시,전북특별자치도,35.42597539,127.6487720227,2793217,,"관광,문화","마을,자연,전통,관광,문화",tour_api_attractions.csv,좌표
서림공원,남원시,전북특별자치도,35.4415104296,127.5292432794,2793207,,"관광,문화","공원,자연,산책,휴식,녹지,운동,전통,관광,문화",tour_api_attractions.csv,좌표
서어나무 숲,남원시,전북특별자치도,35.4217708552,127.5212583888,2613628,,"관광,자연","자연,전통,관광",tour_api_attractions.csv,좌표
선국사(남원),남원시,전북특별자치도,35.4292060599,127.3578504129,318340,,"관광,문화","자연,전통,관광,문화",tour_api_attractions.csv,좌표
선원사(남원),남원시,전북특별자치도,35.4126696208,127.3912589995,319550,,"관광,문화","자연,전통,관광,문화",tour_api_attractions.csv,좌표
승련사(남원),남원시,전북특별자치도,35.4902396985,127.4530515202,319705,,"관광,문화","자연,전통,관광,문화",tour_api_attractions.csv,좌표
신기마을,남원시,전북특별자치도,35.4521400229,127.542975123,2794614,,"관광,문화","마을,자연,전통,관광,문화",tour_api_attractions.csv,좌표
연화사(남원),남원시,전북특별자치도,35.4187341511,127.4675409901,337509,,"관광,문화","자연,전통,관광,문화",tour_api_attractions.csv,좌표
영월암(장수),남원시,전북특별자치도,35.5466376914,127.3855004715,337529,,"관광,문화","자연,전통,관광,문화",tour_api_attractions.csv,좌표
외평마을,남원시,전북특별자치도,35.3910396771,127.4455825376,2794625,,"관광,문화","마을,자연,전통,관광,문화",tour_api_attractions.csv,좌표
용궁마을,남원시,전북특별자치도,35.3812352893,127.4490297097,2787469,,"관광,문화","궁궐,역사,조선,문화재,전통,마을,자연,관광,문화",tour_api_attractions.csv,좌표
용담사(남원),남원시,전북특별자치도,35.4105702278,127.4125266187,126355,,"관광,문화","자연,전통,관광,문화",tour_api_attractions.csv,좌표
용장서원,남원시,전북특별자치도,35.3976954401,127.3408471762,1957036,,"관광,문화","서원,교육,유교,역사,전통,자연,관광,문화",tour_api_attractions.csv,좌표
용호서원(남원),남원시,전북특별자치도,35.3884291566,127.4625811043,1957041,,"관광,문화","서원,교육,유교,역사,전통,자연,관광,문화",tour_api_attractions.csv,좌표
운봉향교,남원시,전북특별자치도,35.4213877336,127.5309019914,1624859,,"관광,문화","등산,하이킹,자연,운동,경치,서원,교육,유교,역사,전통,다리,관광,문화",tour_api_attractions.csv,좌표
원각사 전망대,남원시,전북특별자치도,35.4045260733,127.3898759989,3017616,,"관광,문화","전망대,경치,조망,풍경,경관,자연,전통,관광,문화",tour_api_attractions.csv,좌표
유천서원(남원),남원시,전북특별자치도,35.3840215561,127.3159747274,1957048,,"관광,문화","서원,교육,유교,역사,전통,자연,관광,문화",tour_api_attractions.csv,좌표
의견비,남원시,전북특별자치도,35.5373155405,127.3288751732,128169,,"관광,문화","자연,전통,관광,문화",tour_api_attractions.csv,좌표
일성지리산콘도&리조트,남원시,전북특별자치도,35.4231946571,127.620744013,228913,,"관광,문화","등산,하이킹,자연,운동,경치,역사,문화재,전통,방어,관광,문화",tour_api_attractions.csv,좌표
임실 대말방죽 숲(가시연꽃 자생지),남원시,전북특별자치도,35.511424274,127.3430107054,1590094,,"관광,자연","자연,전통,관광",tour_api_attractions.csv,좌표
임실 오수망루,남원시,전북특별자치도,35.5379987956,127.3288223817,1590972,,"관광,문화","자연,전통,관광,문화",tour_api_attractions.csv,좌표
장항마을,남원시,전북특별자치도,35.4246305475,127.6174220466,2794620,,"관광,문화","마을,자연,전통,관광,문화",tour_api_attractions.csv,좌표
중군마을,남원시,전북특별자치도,35.4615066877,127.6033223258,2787465,,"관광,문화","마을,자연,전통,관광,문화",tour_api_attractions.csv,좌표
지리산 매동마을,남원시,전북특별자치도,35.4256389174,127.625987931,129354,,"관광,문화","등산,하이킹,자연,운동,경치,마을,전통,관광,문화",tour_api_attractions.csv,좌표
지리산 원천마을(남원),남원시,전북특별자치도,35.4122180439,127.6164141269,2351621,,"관광,문화","등산,하이킹,자연,운동,경치,마을,전통,관광,문화",tour_api_attractions.csv,좌표
지리산 허브밸리,남원시,전북특별자치도,35.4351503763,127.5486167347,2613626,,"관광,문화","등산,하이킹,자연,운동,경치,전통,관광,문화",tour_api_attractions.csv,좌표
창덕암(남원),남원시,전북특별자치도,35.4782472348,127.4887931175,482045,,"관광,문화","자연,전통,관광,문화",tour_api_attractions.csv,좌표
창주서원,남원시,전북특별자치도,35.4209798647,127.3954389701,1957086,,"관광,문화","서원,교육,유교,역사,전통,자연,관광,문화",tour_api_attractions.csv,좌표
춘향사당,남원시,전북특별자치도,35.4021539472,127.3799713796,126411,,"관광,문화","자연,전통,관광,문화",tour_api_attractions.csv,좌표
춘향테마파크,남원시,전북특별자치도,35.4019068722,127.3868346686,2519182,,"관광,문화","놀이공원,가족,재미,엔터테인먼트,체험,자연,전통,관광,문화",tour_api_attractions.csv,좌표
춘향허브마을,남원시,전북특별자치도,35.4326977651,127.5423117994,129355,,"관광,문화","마을,자연,전통,관광,문화",tour_api_attractions.csv,좌표
켄싱턴리조트 남원점,남원시,전북특별자치도,35.4020901514,127.3849098342,136538,,"관광,문화","자연,전통,관광,문화",tour_api_attractions.csv,좌표
해월암(임실),남원시,전북특별자치도,35.5370460226,127.3228868213,485741,,"관광,문화","자연,전통,관광,문화",tour_api_attractions.csv,좌표
호암서원,남원시,전북특별자치도,35.5057368481,127.3901205723,1957308,,"관광,문화","서원,교육,유교,역사,전통,자연,관광,문화",tour_api_attractions.csv,좌표
혼불문학관,남원시,전북특별자치도,35.4812967288,127.3198968659,128126,,"관광,문화","자연,전통,관광,문화",tour_api_attractions.csv,좌표
회덕마을,남원시,전북특별자치도,35.3978897622,127.4949696652,2794650,,"관광,문화","마을,자연,전통,관광,문화",tour_api_attractions.csv,좌표
흥부골자연휴양림,남원시,전북특별자치도,35.4449249475,127.5872436242,2795178,,"관광,자연","자연,전통,관광",tour_api_attractions.csv,좌표
개령암지 마애불상군,남원시,전북특별자치도,35.3638163064,127.5220487154,1607032,,"관광,문화","자연,전통,관광,문화",tour_api_attractions.csv,좌표
견두산,남원시,전북특별자치도,35.3400448809,127.4134144762,716313,,"관광,자연","등산,하이킹,자연,운동,경치,전통,관광",tour_api_attractions.csv,좌표
교룡산국민관광지,남원시,전북특별자치도,35.4279729781,127.3643137624,126328,,"관광,문화","등산,하이킹,자연,운동,경치,다리,건축,경관,도시,교통,전통,관광,문화",tour_api_attractions.csv,좌표
남원 교룡산성,남원시,전북특별자치도,35.4280313046,127.3643193161,1607157,,"관광,문화","등산,하이킹,자연,운동,경치,역사,문화재,전통,방어,다리,관광,문화",tour_api_attractions.csv,좌표
남원 만복사지,남원시,전북특별자치도,35.4072226074,127.3677862147,126409,,"관광,문화","자연,전통,관광,문화",tour_api_attractions.csv,좌표
남원 진기리 느티나무,남원시,전북특별자치도,35.4959496219,127.4219818974,1607729,,"관광,자연","자연,전통,관광",tour_api_attractions.csv,좌표
남원 화인당,남원시,전북특별자치도,35.4034482709,127.381435106,3075948,,"관광,문화","자연,전통,관광,문화",tour_api_attractions.csv,좌표
남원서천리당산,남원시,전북특별자치도,35.4410854726,127.5289627602,250307,,"관광,문화","등산,하이킹,자연,운동,경치,전통,관광,문화",tour_api_attractions.csv,좌표
달오름마을,남원시,전북특별자치도,35.4568820232,127.5926289472,128320,,"관광,문화","마을,자연,전통,관광,문화",tour_api_attractions.csv,좌표
동편제탯자리,남원시,전북특별자치도,35.4580397018,127.5627232241,250458,,"관광,문화","자연,전통,관광,문화",tour_api_attractions.csv,좌표
매계서원,남원시,전북특별자치도,35.4823473782,127.3641901416,1956976,,"관광,문화","서원,교육,유교,역사,전통,자연,관광,문화",tour_api_attractions.csv,좌표
미륵암석불,남원시,전북특별자치도,35.3893885888,127.3721640668,1607297,,"관광,문화","자연,전통,관광,문화",tour_api_attractions.csv,좌표
백장암 삼층석탑,남원시,전북특별자치도,35.4423813671,127.6201324539,1607330,,"관광,문화","자연,전통,관광,문화",tour_api_attractions.csv,좌표
실상사(남원),남원시,전북특별자치도,35.4161235075,127.6363150467,126353,,"관광,문화","자연,전통,관광,문화",tour_api_attractions.csv,좌표
심원계곡,남원시,전북특별자치도,35.3769075349,127.5816320065,1607494,,"관광,자연","계곡,자연,여름,피서,청량,전통,관광",tour_api_attractions.csv,좌표
여원치마애불상,남원시,전북특별자치도,35.4471481638,127.4996096394,1607555,,"관광,문화","자연,전통,관광,문화",tour_api_attractions.csv,좌표
오괴정,남원시,전북특별자치도,35.5108903043,127.302853163,1590720,,"관광,문화","자연,전통,관광,문화",tour_api_attractions.csv,좌표
오리정,남원시,전북특별자치도,35.4933404037,127.3541157475,1607570,,"관광,문화","자연,전통,관광,문화",tour_api_attractions.csv,좌표
오수리석불,남원시,전북특별자치도,35.5342686049,127.3254838852,1590217,,"관광,문화","자연,전통,관광,문화",tour_api_attractions.csv,좌표
오수의견 관광지,남원시,전북특별자치도,35.5399708581,127.3324914502,2712746,,"관광,문화","자연,전통,관광,문화",tour_api_attractions.csv,좌표
요천생태습지공원,남원시,전북특별자치도,35.3856052596,127.34769966,2712734,,"관광,자연","공원,자연,산책,휴식,녹지,운동,전통,관광",tour_api_attractions.csv,좌표
육모정,남원시,전북특별자치도,35.388962409,127.4613923069,2748816,,"관광,문화","자연,전통,관광,문화",tour_api_attractions.csv,좌표
의사전해산 추모비,남원시,전북특별자치도,35.5023648014,127.5374604074,127359,,"관광,문화","등산,하이킹,자연,운동,경치,전통,관광,문화",tour_api_attractions.csv,좌표
이웅재고가,남원시,전북특별자치도,35.5046106995,127.3166576594,1590555,,"관광,문화","자연,전통,관광,문화",tour_api_attractions.csv,좌표
정령치,남원시,전북특별자치도,35.3638163064,127.5220487154,1607623,,"관광,자연","자연,전통,관광",tour_api_attractions.csv,좌표
지리산 반야봉,남원시,전북특별자치도,35.3314493303,127.6131331903,716410,,"관광,자연","등산,하이킹,자연,운동,경치,전통,관광",tour_api_attractions.csv,좌표
지리산 천년송,남원시,전북특별자치도,35.3637259288,127.5952505927,1607706,,"관광,자연","등산,하이킹,자연,운동,경치,전통,관광",tour_api_attractions.csv,좌표
지리산국립공원(남원),남원시,전북특별자치도,35.382213945,127.5057968944,127800,,"관광,자연","등산,하이킹,자연,운동,경치,공원,산책,휴식,녹지,전통,관광",tour_api_attractions.csv,좌표
국립민속국악원,남원시,전북특별자치도 남원시 양림길 54,,,129721,,"문화시설,인문",,tour_api_cultural.csv,주소
국악의 성지,남원시,전북특별자치도 남원시 운봉읍 비전길 69,,,1624871,,"문화시설,인문",,tour_api_cultural.csv,주소
남원 백두대간전시관,남원시,전북특별자치도 남원시 운봉읍 주촌리,,,2658207,,"문화시설,인문",,tour_api_cultural.csv,주소
남원다움관,남원시,전북특별자치도 남원시 검멀1길 14,,,2660398,,"문화시설,인문",,tour_api_cultural.csv,주소
남원문화원,남원시,전북특별자치도 남원시 광한북로 57 (하정동),,,129975,,"문화시설,인문",,tour_api_cultural.csv,주소
남원시립김병종미술관,남원시,전북특별자치도 남원시 함파우길 65-14,,,2559504,,"문화시설,인문",,tour_api_cultural.csv,주소
남원향토박물관,남원시,전북특별자치도 남원시 양림길 14-9,,,130506,,"문화시설,인문",,tour_api_cultural.csv,주소
춘향문화예술회관,남원시,전북특별자치도 남원시 양림길 43,,,130041,,"문화시설,인문",,tour_api_cultural.csv,주소
피오리움(Fiorium),남원시,전북특별자치도 남원시 소리길 50 (어현동),,,3497960,,"문화시설,인문",,tour_api_cultural.csv,주소
남원국제드론제전 with 로봇,남원시,전북특별자치도 남원시 충정로 341 (월락동),,,3347609,,"축제,인문",,tour_api_festivals.csv,주소
남원문화유산야행,남원시,전북특별자치도 남원시 요천로 1447 광한루,,,2858866,,"축제,인문",,tour_api_festivals.csv,주소
동편제국악축제,남원시,전북특별자치도 남원시 운봉읍 가산화수길 84,,,2492537,,"축제,인문",,tour_api_festivals.csv,주소
문화의 달,남원시,전북특별자치도 남원시 요천로 1447 (천거동),,,3014969,,"축제,인문",,tour_api_festivals.csv,주소
춘향제,남원시,전북특별자치도 남원시 요천로 1447 광한루,,,506473,,"축제,인문",,tour_api_festivals.csv,주소
흥부제,남원시,전북특별자치도 남원시 양림길 12 (어현동),,,1373481,,"축제,인문",,tour_api_festivals.csv,주소
2025 신관사또부임행차,남원시,전북특별자치도 남원시 요천로 1447 (천거동),,,2446505,,"축제,인문",,tour_api_festivals.csv,주소
골프존카운티 드래곤,남원시,전북특별자치도 남원시 대산면 대사로 500,,,2779274,,"레포츠,레포츠",,tour_api_leisure.csv,주소
구룡치(사무락다무락),남원시,전북특별자치도 남원시 주천면 정령치로 210-12,,,2793233,,"레포츠,레포츠",,tour_api_leisure.csv,주소
남원 백두대간 에코롯지,남원시,전북특별자치도 남원시 운봉읍 주촌리,,,3040467,,"레포츠,레포츠",,tour_api_leisure.csv,주소
남원백두대간힐링캠핑장,남원시,전북특별자치도 남원시 운봉읍 행정공안길 299,,,2750050,,"레포츠,레포츠",,tour_api_leisure.csv,주소
남원워터월드수상스키장,남원시,전북특별자치도 남원시 주생면 도산리 산24-3,,,2787407,,"레포츠,레포츠",,tour_api_leisure.csv,주소
달궁자동차야영장,남원시,전북특별자치도 남원시 산내면 덕동리 274번지 외 22필지,,,2728600,,"레포츠,레포츠",,tour_api_leisure.csv,주소
달궁힐링야영장,남원시,전북특별자치도 남원시 산내면 덕동리 287-3,,,2749861,,"레포츠,레포츠",,tour_api_leisure.csv,주소
덕동자동차야영장,남원시,전북특별자치도 남원시 산내면 지리산로 593,,,2664801,,"레포츠,레포츠",,tour_api_leisure.csv,주소
뱀사골자동차야영장,남원시,전북특별자치도 남원시 산내면 와운길 10,,,2761244,,"레포츠,레포츠",,tour_api_leisure.csv,주소
뱀사골힐링야영장,남원시,전북특별자치도 남원시 산내면 와운길 29,,,2753207,,"레포츠,레포츠",,tour_api_leisure.csv,주소
전북특별자치도교육청학생수련원,남원시,전북특별자치도 남원시 운봉읍 행정공안길 302,,,1624838,,"레포츠,레포츠",,tour_api_leisure.csv,주소
지리산산내들펜션야영장,남원시,전북특별자치도 남원시 산내면 천왕봉로 892,,,2749590,,"레포츠,레포츠",,tour_api_leisure.csv,주소
지리산천왕봉야영장,남원시,전북특별자치도 남원시 산내면 지리산로 1241,,,2747521,,"레포츠,레포츠",,tour_api_leisure.csv,주소
케이원항공경비행기조종체험비행,남원시,전북특별자치도 남원시 요천로 2272 (식정동),,,3040312,,"레포츠,레포츠",,tour_api_leisure.csv,주소
학천야영장,남원시,전북특별자치도 남원시 산내면 지리산로 712,,,2791997,,"레포츠,레포츠",,tour_api_leisure.csv,주소
[지리산 둘레길 코스] 운봉~인월,남원시,전북특별자치도 남원시 인월면 인월2길 95,,,1981089,,"레포츠,레포츠",,tour_api_leisure.csv,주소
[지리산 둘레길 코스] 인월~금계,남원시,전북특별자치도 남원시 인월면 인월2길 95,,,1981076,,"레포츠,레포츠",,tour_api_leisure.csv,주소
[지리산 둘레길 코스] 주천~운봉,남원시,전북특별자치도 남원시 주천면 외평2길 5,,,1981067,,"레포츠,레포츠",,tour_api_leisure.csv,주소
남원 목기공예사,남원시,전북특별자치도 남원시 요천로 1357 (조산동),,,132464,,"쇼핑,쇼핑",,tour_api_shopping.csv,주소
남원 목기사업협동조합 판매장,남원시,전북특별자치도 남원시 목공예길 27,,,132442,,"쇼핑,쇼핑",,tour_api_shopping.csv,주소
남원 목운공예사,남원시,전북특별자치도 남원시 요천로 1230-9,,,1342613,,"쇼핑,쇼핑",,tour_api_shopping.csv,주소
남원 용남시장,남원시,전북특별자치도 남원시 의총로 78,,,132304,,"쇼핑,쇼핑",,tour_api_shopping.csv,주소
남원 터미널시장,남원시,전북특별자치도 남원시 봉당길 8,,,132769,,"쇼핑,쇼핑",,tour_api_shopping.csv,주소
남원인월시장,남원시,전북특별자치도 남원시 인월면 인월로 65-3,,,132305,,"쇼핑,쇼핑",,tour_api_shopping.csv,주소
"남원장 / 남원공설시장 (4, 9일)",남원시,전북특별자치도 남원시 의총로 51,,,132043,,"쇼핑,쇼핑",,tour_api_shopping.csv,주소
더페이스샵,남원시,전북특별자치도 남원시 남문로385-16,,,2925838,,"쇼핑,쇼핑",,tour_api_shopping.csv,주소
"운봉장 / 운봉공설시장  (1, 6일)",남원시,전북특별자치도 남원시 운봉읍 운성로 20,,,132044,,"쇼핑,쇼핑",,tour_api_shopping.csv,주소
정일품공방,남원시,전북특별자치도 남원시 요천로 1268,,,1344349,,"쇼핑,쇼핑",,tour_api_shopping.csv,주소
지리산맑은물춘향골 영농조합법인,남원시,전북특별자치도 남원시 주천면 장백산로 10,,,3357428,,"쇼핑,쇼핑",,tour_api_shopping.csv,주소
춘향골 공설시장,남원시,전북특별자치도 남원시 의총로 51,,,2755020,,"쇼핑,쇼핑",,tour_api_shopping.csv,주소
달(月)달(月)한 남원여행,남원시,전라북도 남원시 요천로 1447,,,2786990,,"여행코스,추천코스",,tour_api_courses.csv,주소
어제를 추억하고 오늘을 기록하는 남원 여행,남원시,전북특별자치도 남원시 사매면 서도길 32,,,2660111,,"여행코스,추천코스",,tour_api_courses.csv,주소
