name,region,address_full,lat,lon,contentid,landscape_keywords,travel_style_keywords
가인 김병로 생가터,정읍시,전북특별자치도,35.4505693165,126.9774224423,2357441,,문화·역사
갑오동학혁명 100주년 기념탑,정읍시,전북특별자치도,35.5097335146,126.9002222297,1625103,,문화·역사;사진 스팟
고택문화체험관,정읍시,전북특별자치도,35.6166039952,127.0201949462,2009156,,체험형;문화·역사
국사봉(순창),정읍시,전북특별자치도,35.5360404765,126.9946381748,2357450,산,야외활동;힐링·여유;사진 스팟
낙덕정,정읍시,전북특별자치도,35.4440088406,126.9710676178,1610702,,문화·역사;힐링·여유
남고서원,정읍시,전북특별자치도,35.5728516987,126.9205021494,1956440,,문화·역사;힐링·여유
남산사(정읍),정읍시,전북특별자치도,35.6085077687,126.8623314089,298205,산,문화·역사;힐링·여유
내장산 단풍생태공원,정읍시,전북특별자치도,35.5090642612,126.9069744245,2715684,산,힐링·여유;사진 스팟;야외활동
내장산 생태탐방원,정읍시,전북특별자치도,35.5078393677,126.9050690697,3403800,산,체험형;야외활동;힐링·여유
내장산 워터파크,정읍시,전북특별자치도,35.5207877681,126.8973999766,2738691,산,레저·액티비티;체험형
내장산 케이블카,정읍시,전북특별자치도,35.4867557082,126.9086276242,650363,산,레저·액티비티;체험형;사진 스팟
내장산국립공원,정읍시,전북특별자치도,35.4868694129,126.898570181,126237,산,야외활동;힐링·여유;사진 스팟
내장산수목원,정읍시,전북특별자치도,35.5099112372,126.8981779623,2414865,숲,힐링·여유;체험형;야외활동
다천사(정읍),정읍시,전북특별자치도,35.6524820999,126.9529222247,299976,산,문화·역사;힐링·여유
닥나무한지체험관 콩닥콩닥,정읍시,전북특별자치도,35.6917169949,126.8177082499,3358056,,체험형;문화·역사
도계서원,정읍시,전북특별자치도,35.6382924197,126.8122351043,1626301,,문화·역사;힐링·여유
동죽서원,정읍시,전북특별자치도,35.6134120183,126.8183851923,1956972,,문화·역사;힐링·여유
만석보혁파비,정읍시,전북특별자치도,35.6717725957,126.8502419757,1627095,,문화·역사
말목장터와 감나무,정읍시,전북특별자치도,35.6644343284,126.8377654965,250288,,문화·역사;체험형
망부상과 망부사 사우,정읍시,전북특별자치도,35.5509892879,126.8616579374,1627158,,문화·역사;힐링·여유
백암리남근석,정읍시,전북특별자치도,35.5994436653,126.9521042155,1627256,,문화·역사;사진 스팟
벽련암(정읍),정읍시,전북특별자치도,35.4932326954,126.9053333076,252597,산,문화·역사;힐링·여유
산외한우마을,정읍시,전북특별자치도,35.6218398632,127.0406402167,1626187,,먹거리 탐방;체험형
석탄사(정읍),정읍시,전북특별자치도,35.5637427413,126.9859687896,318335,산,문화·역사;힐링·여유
선비문화체험관 우리누리,정읍시,전북특별자치도,35.5762148999,127.0647392528,128323,,체험형;문화·역사
연자봉,정읍시,전북특별자치도,35.4805534759,126.8993897134,650224,산,야외활동;힐링·여유;사진 스팟
용계서원,정읍시,전북특별자치도,35.6019523345,126.9883564854,1957028,,문화·역사;힐링·여유
우화정(내장산),정읍시,전북특별자치도,35.486477989,126.9102191565,649968,산,문화·역사;힐링·여유;사진 스팟
정읍 김명관 고택,정읍시,전북특별자치도,35.6161623752,127.0199921979,231907,,문화·역사;체험형
정읍 내장산 관광특구,정읍시,전북특별자치도,35.4838615072,126.9036809149,1958000,산,체험형;야외활동;사진 스팟
정읍 피향정,정읍시,전북특별자치도,35.6511598608,126.943200901,126396,,문화·역사;힐링·여유;사진 스팟
정읍 허브원,정읍시,전북특별자치도,35.5647716341,126.895540685,3428425,,체험형;힐링·여유
정읍사공원,정읍시,전북특별자치도,35.5507726439,126.8615885046,126318,,문화·역사;힐링·여유
정읍어린이교통공원,정읍시,전북특별자치도,35.555955521,126.8693126858,1627481,,체험형
정읍향교,정읍시,전북특별자치도,35.5673985195,126.8606992705,1626239,,문화·역사;힐링·여유
정토사(정읍),정읍시,전북특별자치도,35.6584886507,126.8886666747,479904,산,문화·역사;힐링·여유
죽림폭포공원,정읍시,전북특별자치도,35.5637598347,126.8484032341,1627495,산,힐링·여유;야외활동;사진 스팟
증산 강일순 탄생지,정읍시,전북특별자치도,35.6309715239,126.8412910394,1625126,,문화·역사
창동서원,정읍시,전북특별자치도,35.6551182687,126.8112708707,1626384,,문화·역사;힐링·여유
천곡사지 칠층석탑,정읍시,전북특별자치도,35.614567573,126.82604837,1627540,,문화·역사;사진 스팟
추령천,정읍시,전북특별자치도,35.4664760029,126.9865267847,1612160,강·호수,힐링·여유;야외활동;사진 스팟
충렬사,정읍시,전북특별자치도,35.56992318,126.8575744838,126393,,문화·역사
충무공원,정읍시,전북특별자치도,35.5699703919,126.8572856192,1627512,,문화·역사;힐링·여유
칠보물테마유원지,정읍시,전북특별자치도,35.6068433883,126.9850038796,1627632,강·호수,체험형;레저·액티비티;야외활동
태인동헌,정읍시,전북특별자치도,35.6535763021,126.946050585,1626331,,문화·역사
태인향교,정읍시,전북특별자치도,35.6540011627,126.9407288251,1626254,,문화·역사;힐링·여유
훈몽재 유지,정읍시,전북특별자치도,35.4726472168,126.9684393428,2357469,,문화·역사
금선폭포,정읍시,전북특별자치도,35.5044426262,126.9106714366,1626454,산,힐링·여유;야외활동;사진 스팟
내장사(정읍),정읍시,전북특별자치도,35.4892303275,126.9027503052,126343,산,문화·역사;힐링·여유
내장산 굴거리나무군락,정읍시,전북특별자치도,35.4867500233,126.9009949687,1626149,숲,힐링·여유;체험형
내장산조각공원,정읍시,전북특별자치도,35.5097335146,126.9002222297,1626138,산,체험형;문화·역사
도덕폭포,정읍시,전북특별자치도,35.4854700231,126.9250845294,1626988,산,힐링·여유;야외활동;사진 스팟
만석보지,정읍시,전북특별자치도,35.6805190133,126.8613296528,250287,강·호수,힐링·여유;체험형
망제동석불입상(대암석불),정읍시,전북특별자치도,35.6059605021,126.8427721019,1626945,,문화·역사;사진 스팟
무성서원 [유네스코 세계유산],정읍시,전북특별자치도,35.6016800678,126.9839541057,126401,,문화·역사
미르샘 다리,정읍시,전북특별자치도,35.508841214,126.857026089,3067855,강·호수,체험형;사진 스팟
보림사(정읍),정읍시,전북특별자치도,35.5658136007,126.9200384818,316102,산,문화·역사;힐링·여유
성황산,정읍시,전북특별자치도,35.5716452566,126.8605019577,1627360,산,힐링·여유;사진 스팟;야외활동
송우암수명유허비,정읍시,전북특별자치도,35.5664430088,126.856944073,1627388,,문화·역사
영광정,정읍시,전북특별자치도,35.4860818889,126.9733552303,1611841,,문화·역사;힐링·여유
용굴,정읍시,전북특별자치도,35.486827567,126.8877683635,1627404,산,힐링·여유;사진 스팟
용산저수지,정읍시,전북특별자치도,35.5097133098,126.8554206536,1627447,강·호수,힐링·여유;야외활동
유럽마을 엥겔베르그,정읍시,전북특별자치도,35.5820741425,126.8320097801,3410581,,체험형;사진 스팟
정읍 구절초 지방정원,정읍시,전북특별자치도,35.5509502957,127.0179412789,1626156,숲,힐링·여유;사진 스팟
정읍 쌍화차거리,정읍시,전북특별자치도,35.5673234605,126.8567468461,2047242,,먹거리 탐방;체험형
정읍 전봉준 유적,정읍시,전북특별자치도,35.6709581902,126.8145340639,129514,,문화·역사
정읍 황토현 전적,정읍시,전북특별자치도,35.6336543552,126.8296614492,126380,,문화·역사;체험형
칠보산,정읍시,전북특별자치도,35.5711634428,126.9463276762,1627635,산,힐링·여유;야외활동;사진 스팟
구파백정기의사기념관,정읍시,전북특별자치도 정읍시 영원면 영원로 1049,,,252657,,문화·역사
국립전북기상과학관,정읍시,전북특별자치도 정읍시 서부산업도로 168-43 (상평동),,,2655877,,체험형;문화·역사
내장산 탐방안내소,정읍시,전북특별자치도 정읍시 내장산로 1207,,,130234,산,체험형;야외활동
동학농민혁명기념관,정읍시,전북특별자치도 정읍시 덕천면 동학로 742,,,775041,,문화·역사;체험형
명봉도서관,정읍시,전북특별자치도 정읍시 태인면 태인로 33-9,,,1941168,,체험형
연지아트홀,정읍시,전북특별자치도 정읍시 중앙로 73 (연지동),,,3066651,,문화·역사;체험형
정읍문화원,정읍시,전북특별자치도 정읍시 조곡천1길 1,,,129976,,문화·역사;체험형
정읍사국악원,정읍시,전북특별자치도 정읍시 시기4길 23 (시기동),,,130043,,문화·역사;체험형
정읍사예술회관,정읍시,전북특별자치도 정읍시 시기4길 13,,,130042,,문화·역사;체험형
정읍시립미술관,정읍시,전북특별자치도 정읍시 시기4길 7,,,2742247,,문화·역사;체험형
정읍사문화제,정읍시,전북특별자치도 정읍시 정읍사로 541 (시기동),,,627825,,축제·이벤트;문화·역사
내장산골프앤리조트,정읍시,전북특별자치도 정읍시 첨단과학로 476,,,2778936,산,레저·액티비티;체험형
내장산국민여가캠핑장,정읍시,전북특별자치도 정읍시 내장산로 410 (부전동),,,2728542,산,체험형;야외활동
내장야영장,정읍시,전북특별자치도 정읍시 내장산로 800,,,2728551,산,체험형;야외활동
로하스캠핑장,정읍시,전북특별자치도 정읍시 산내면 산호수길 204-70,,,2727296,산,체험형;야외활동
섬진강캠핑장,정읍시,전북특별자치도 정읍시 산외면 산외로 445-30,,,2741537,강·호수,체험형;야외활동
수청저수지,정읍시,전북특별자치도 정읍시 칠보면 칠보산로,,,131240,강·호수,힐링·여유;야외활동
일곱식구 캠핑장,정읍시,전북특별자치도 정읍시 행단1길 153,,,2908870,,체험형;야외활동
자두마을캠핑,정읍시,전북특별자치도 정읍시 종황길 92,,,2734238,,체험형;야외활동
정화네 불한증막 힐링캠프,정읍시,전북특별자치도 정읍시 고부면 덕신강길 148-4,,,2745650,,체험형;힐링·여유
(유)금강 두승산 글램핑,정읍시,전북특별자치도 정읍시 고부면 영원로 222-15,,,2749553,산,체험형;야외활동
정읍 샘고을시장,정읍시,전북특별자치도 정읍시 태평6길 22-2,,,132307,,먹거리 탐방;체험형
정읍 신태인시장,정읍시,전북특별자치도 정읍시 신태인읍 시장2길 14,,,1334747,,먹거리 탐방;체험형
정읍 연지시장,정읍시,전북특별자치도 정읍시 연지시장3길 43 (연지동),,,522533,,먹거리 탐방;체험형
정읍시 농산물도매시장,정읍시,전북특별자치도 정읍시 황토현로 1213-15,,,522463,,먹거리 탐방;체험형
